0 FENGYUN 1C DEB
1 37031U 99025EDP 13276.59222959  .00003598  00000-0  12519-2 0   560
2 37031 099.6938 202.3361 0054442 202.5395 157.4716 14.35336407267127
